              M50 Cartesian                         J2K Cartesian  
    -----------------------------------       --------------------------------
     X    =       15228188.71                 X    =         4679199.99
     Y    =       -4347545.43  feet           Y    =        -1273016.74  meter
     Z    =      -15652414.84                 Z    =        -4748216.70
     XDOT =      14401.243861                 XDOT =        4312.697489
     YDOT =      18587.658731  feet/sec       YDOT =        5714.175435  meter/sec
     ZDOT =       8862.687671                 ZDOT =        2722.483664
 
              TDR Cartesian                         TDR Cartesian  
    -----------------------------------       --------------------------------
     X    =       13187861.50                 X    =         4019660.18
     Y    =       -8941896.07  feet           Y    =        -2725489.92  meter
     Z    =      -15553770.50                 Z    =        -4740789.25
     XDOT =      18802.950205                 XDOT =        5731.139222
     YDOT =      12183.016263  feet/sec       YDOT =        3713.383357  meter/sec
     ZDOT =       8953.438874                 ZDOT =        2729.008169
  
  
    The mean element set is posted at the UTC for which position is
    just north of the next ascending node relative to the above
    vector time
 
 
    TWO LINE MEAN ELEMENT SET
  
    ISS
    1 25544U 98067A   16101.51126222  .00016717  00000-0  10270-3 0  9041
    2 25544  51.6421  35.5851 0002639  43.4169 316.7191 15.54432777 34454
  
  
    Satellite: ISS
    Catalog Number: 25544
    Epoch time:      16101.51126222   =   yrday.fracday
    Element set:     904
    Inclination:       51.6421  deg
    RA of node:        35.5851  deg
    Eccentricity:     .0002639     
    Arg of perigee:    43.4169  deg
    Mean anomaly:     316.7191  deg
    Mean motion:   15.54432777  rev/day
    Decay rate:    1.67170E-04  rev/day^2
    Epoch rev:            3445
    Checksum:              289
 
 
    Coasting Arc #6 (Orbit 3460)
    ---------------------------------------
 
    Vector Time (GMT): 2016/102/12:00:00.000
    Vector Time (MET): N/A
    Weight (LBS)     : 944180.3
 
              M50 Cartesian                         M50 Keplerian  
    -----------------------------------       --------------------------------
     X    =       -5698582.24                 A    =         6782781.39  meter
     Y    =          37046.33  meter          E    =           .0013955
     Z    =        3669117.58                 I    =           51.83224
     XDOT =      -2860.352924                 Wp   =           78.66339
     YDOT =      -5619.992773  meter/sec      RA   =           30.03025  deg
     ZDOT =      -4369.003383                 TA   =           57.82040
                                              MA   =           57.68512
                                              Ha   =            221.334  n.mi
                                              Hp   =            213.497
 
              M50 Cartesian                         J2K Cartesian  
    -----------------------------------       --------------------------------
     X    =      -18696135.94                 X    =        -5716396.15
     Y    =         121543.07  feet           Y    =          -26778.42  meter
     Z    =       12037787.34                 Z    =         3641391.73
     XDOT =      -9384.359986                 XDOT =       -2776.073209
     YDOT =     -18438.296498  feet/sec       YDOT =       -5651.508130  meter/sec
     ZDOT =     -14334.000601                 ZDOT =       -4382.693415
 
              TDR Cartesian                         TDR Cartesian  
    -----------------------------------       --------------------------------
     X    =      -17679261.43                 X    =        -5388638.88
     Y    =        6315891.04  feet           Y    =         1925083.59  meter
     Z    =       11917291.29                 Z    =         3632390.38
     XDOT =     -14400.011175                 XDOT =       -4389.123406
     YDOT =     -13046.882977  feet/sec       YDOT =       -3976.689931  meter/sec
     ZDOT =     -14392.389594                 ZDOT =       -4386.800348
  
  
    The mean element set is posted at the UTC for which position is
    just north of the next ascending node relative to the above
    vector time
 
 
    TWO LINE MEAN ELEMENT SET
  
    ISS
    1 25544U 98067A   16102.53988787  .00016717  00000-0  10270-3 0  9057
    2 25544  51.6427  30.4558 0002565  45.2777 314.8585 15.54454982 34617
  
  
    Satellite: ISS
    Catalog Number: 25544
    Epoch time:      16102.53988787   =   yrday.fracday
    Element set:     905
    Inclination:       51.6427  deg
    RA of node:        30.4558  deg
    Eccentricity:     .0002565     
    Arg of perigee:    45.2777  deg
    Mean anomaly:     314.8585  deg
    Mean motion:   15.54454982  rev/day
    Decay rate:    1.67170E-04  rev/day^2
    Epoch rev:            3461
    Checksum:              338
 
 
    Coasting Arc #7 (Orbit 3475)
    ---------------------------------------
 
    Vector Time (GMT): 2016/103/12:00:00.000
    Vector Time (MET): N/A
    Weight (LBS)     : 944180.3
 
              M50 Cartesian                         M50 Keplerian  
    -----------------------------------       --------------------------------
     X    =        6336854.48                 A    =         6786427.20  meter
     Y    =        1081269.61  meter          E    =           .0008953
     Z    =       -2167646.28                 I    =           51.81644
     XDOT =        982.924652                 Wp   =           43.20091
     YDOT =       5241.510019  meter/sec      RA   =           25.06151  deg
     ZDOT =       5507.838398                 TA   =          292.81415
                                              MA   =          292.90869
                                              Ha   =            221.317  n.mi
                                              Hp   =            213.445
 
              M50 Cartesian                         J2K Cartesian  
    -----------------------------------       --------------------------------
     X    =       20790204.99                 X    =         6334822.05
     Y    =        3547472.49  feet           Y    =         1152121.07  meter
     Z    =       -7111700.40                 Z    =        -2136868.19
     XDOT =       3224.818412                 XDOT =         897.484821
     YDOT =      17196.555182  feet/sec       YDOT =        5252.024270  meter/sec
     ZDOT =      18070.335951                 ZDOT =        5512.405467
 
              TDR Cartesian                         TDR Cartesian  
    -----------------------------------       --------------------------------
     X    =       20773924.11                 X    =         6331892.07
     Y    =       -3891371.83  feet           Y    =        -1186090.13  meter
     Z    =       -6978163.75                 Z    =        -2126944.31
     XDOT =       8590.631541                 XDOT =        2618.424494
     YDOT =      13541.232916  feet/sec       YDOT =        4127.367793  meter/sec
     ZDOT =      18089.146843                 ZDOT =        5513.571958
  
  
    The mean element set is posted at the UTC for which position is
    just north of the next ascending node relative to the above
    vector time
 
 
    TWO LINE MEAN ELEMENT SET
  
    ISS
    1 25544U 98067A   16103.50421249  .00016717  00000-0  10270-3 0  9061
    2 25544  51.6428  25.6463 0002610  48.5111 311.6265 15.54465055 34767
  
  
    Satellite: ISS
    Catalog Number: 25544
    Epoch time:      16103.50421249   =   yrday.fracday
    Element set:     906
    Inclination:       51.6428  deg
    RA of node:        25.6463  deg
    Eccentricity:     .0002610     
    Arg of perigee:    48.5111  deg
    Mean anomaly:     311.6265  deg
    Mean motion:   15.54465055  rev/day
    Decay rate:    1.67170E-04  rev/day^2
    Epoch rev:            3476
    Checksum:              282
 
 
    Coasting Arc #8 (Orbit 3491)
    ---------------------------------------
 
    Vector Time (GMT): 2016/104/12:00:00.000
    Vector Time (MET): N/A
    Weight (LBS)     : 944180.3
 
              M50 Cartesian                         M50 Keplerian  
    -----------------------------------       --------------------------------
     X    =       -6453759.62                 A    =         6788274.90  meter
     Y    =       -2056003.63  meter          E    =           .0013475
     Z    =         364756.31                 I    =           51.79382
     XDOT =       1125.167869                 Wp   =          120.03653
     YDOT =      -4626.610670  meter/sec      RA   =           20.09985  deg
     ZDOT =      -6011.329047                 TA   =           56.03949
                                              MA   =           55.91149
                                              Ha   =            221.275  n.mi
                                              Hp   =            213.364
 
              M50 Cartesian                         J2K Cartesian  
    -----------------------------------       --------------------------------
     X    =      -21173752.02                 X    =        -6432061.05
     Y    =       -6745418.73  feet           Y    =        -2128052.52  meter
     Z    =        1196707.04                 Z    =          333458.23
     XDOT =       3691.495632                 XDOT =        1206.020733
     YDOT =     -15179.168866  feet/sec       YDOT =       -4613.576524  meter/sec
     ZDOT =     -19722.208158                 ZDOT =       -6005.666623
 
